IRIDIUM 119             
1 42959U 17061E   25316.14660472 -.00000004  00000+0 -83293-5 0  9996
2 42959  86.3943 116.0048 0001971  83.6058 276.5363 14.34217362423703
IRIDIUM 107             
1 42960U 17061F   25315.88656850  .00000175  00000+0  55563-4 0  9998
2 42960  86.3941 116.1337 0001692  82.7168 277.4220 14.34219196423672
IRIDIUM 132             
1 42961U 17061G   25315.96266859 -.00000031  00000+0 -18138-4 0  9994
2 42961  86.3946 116.0831 0001793  89.6584 270.4818 14.34217221423680
IRIDIUM 136             
1 42962U 17061H   25315.99438122 -.00000004  00000+0 -86186-5 0  9991
2 42962  86.3944 116.0751 0001874  86.2933 273.8477 14.34217601423704
IRIDIUM 139             
1 42963U 17061J   25316.21003005  .00000015  00000+0 -18028-5 0  9997
2 42963  86.3946 116.0434 0001683  89.6669 270.4719 14.34217577423744
IRIDIUM 125             
1 42964U 17061K   25315.98803933 -.00000026  00000+0 -16225-4 0  9998
2 42964  86.3951 116.1937 0001761  74.3216 285.8174 14.34217290423721
IRIDIUM 135             
1 43070U 17083A   25316.31100872  .00000326  00000+0  10935-3 0  9993
2 43070  86.3982  52.6613 0002134  99.0543 261.0894 14.34218947413062
IRIDIUM 138             
1 43071U 17083B   25316.19684298 -.00000011  00000+0 -11168-4 0  9992
2 43071  86.3995  52.3711 0002114  86.6601 273.4837 14.34217473413032
